NORAD_CAT_ID,OBJECT_NAME,OBJECT_TYPE,EPOCH,MEAN_MOTION,ECCENTRICITY,INCLINATION,RA_OF_ASC_NODE,ARG_OF_PERICENTER,MEAN_ANOMALY,BSTAR,MEAN_MOTION_DOT,MEAN_MOTION_DDOT,TLE_LINE0,TLE_LINE1,TLE_LINE2,SEMIMAJOR_AXIS,PERIOD,APOGEE,PERIGEE,DECAYED
53566.0,STARLINK-4576,PAYLOAD,2023-02-25 06:47:50,15.0884928,0.0001485,53.2175,349.9368,92.6521,267.4641,0.00053549,8.247e-05,0.0,0 STARLINK-4576,1 53566U 22101AR  23056.28322769  .00008247  00000-0  53549-3 0  9996,2 53566  53.2175 349.9368 0001485  92.6521 267.4641 15.08849280 29809,6917.852,95.437,540.744,538.69,0.0
53566.0,STARLINK-4576,PAYLOAD,2023-02-26 01:52:28,15.08851519,0.0001474,53.2185,346.3679,97.6527,262.4633,0.001251,0.00019684,0.0,0 STARLINK-4576,1 53566U 22101AR  23057.07811317  .00019684  00000-0  12510-2 0  9995,2 53566  53.2185 346.3679 0001474  97.6527 262.4633 15.08851519 29236,6917.845,95.437,540.73,538.69,0.0
53566.0,STARLINK-4576,PAYLOAD,2023-02-27 01:43:15,15.08868678,0.0001321,53.2182,341.9094,85.8914,274.223,0.0012509,0.00019692,0.0,0 STARLINK-4576,1 53566U 22101AR  23058.07170444  .00019692  00000-0  12509-2 0  9992,2 53566  53.2182 341.9094 0001321  85.8914 274.2230 15.08868678 29389,6917.793,95.436,540.572,538.744,0.0
53566.0,STARLINK-4576,PAYLOAD,2023-02-27 19:12:29,15.08876548,0.0001586,53.2193,338.6367,82.5116,277.6056,0.0013043,0.00020552,0.0,0 STARLINK-4576,1 53566U 22101AR  23058.80033857  .00020552  00000-0  13043-2 0  9990,2 53566  53.2193 338.6367 0001586  82.5116 277.6056 15.08876548 29498,6917.769,95.435,540.731,538.537,0.0
53566.0,STARLINK-4576,PAYLOAD,2023-02-28 01:34:01,15.08877998,0.0001073,53.2193,337.4477,96.9259,263.1855,0.0011708,0.00018414,0.0,0 STARLINK-4576,1 53566U 22101AR  23059.06529446  .00018414  00000-0  11708-2 0  9993,2 53566  53.2193 337.4477 0001073  96.9259 263.1855 15.08877998 29537,6917.764,95.435,540.372,538.887,0.0
53566.0,STARLINK-4576,PAYLOAD,2023-02-28 22:14:04,15.08809282,4.57e-05,53.2183,333.583,43.1528,316.95,0.00028549,4.255e-05,0.0,0 STARLINK-4576,1 53566U 22101AR  23059.92643778  .00004255  00000-0  28549-3 0  9993,2 53566  53.2183 333.5830 0000457  43.1528 316.9500 15.08809282 30351,6917.974,95.439,540.155,539.523,0.0
53566.0,STARLINK-4576,PAYLOAD,2023-03-01 03:00:14,15.08795158,7.7e-05,53.2179,332.6893,125.9112,234.1952,-0.00012982,-2.35e-05,0.0,0 STARLINK-4576,1 53566U 22101AR  23060.12516220 -.00002350  00000-0 -12982-3 0  9998,2 53566  53.2179 332.6893 0000770 125.9112 234.1952 15.08795158 29694,6918.017,95.44,540.415,539.35,0.0
53566.0,STARLINK-4576,PAYLOAD,2023-03-01 06:11:00,15.08801117,7.93e-05,53.2181,332.0947,127.465,232.6415,0.00012503,1.701e-05,0.0,0 STARLINK-4576,1 53566U 22101AR  23060.25764532  .00001701  00000-0  12503-3 0  9999,2 53566  53.2181 332.0947 0000793 127.4650 232.6415 15.08801117 29713,6917.999,95.44,540.413,539.316,0.0
53566.0,STARLINK-4576,PAYLOAD,2023-03-01 22:04:51,15.08830443,7.86e-05,53.2176,329.123,130.3371,229.7689,0.0020316,0.00032184,0.0,0 STARLINK-4576,1 53566U 22101AR  23060.92004553  .00032184  00000-0  20316-2 0  9992,2 53566  53.2176 329.1230 0000786 130.3371 229.7689 15.08830443 30507,6917.91,95.438,540.318,539.231,0.0
53566.0,STARLINK-4576,PAYLOAD,2023-03-02 01:15:37,15.08861313,0.0001054,53.218,328.5264,147.3298,212.7759,0.0017389,0.00027511,0.0,0 STARLINK-4576,1 53566U 22101AR  23061.05252022  .00027511  00000-0  17389-2 0  9997,2 53566  53.2180 328.5264 0001054 147.3298 212.7759 15.08861313 29831,6917.815,95.436,540.409,538.951,0.0
53566.0,STARLINK-4576,PAYLOAD,2023-03-03 01:06:23,15.08884811,8.36e-05,53.218,324.0672,162.1502,197.9519,0.0011338,0.00017825,0.0,0 STARLINK-4576,1 53566U 22101AR  23062.04610732  .00017825  00000-0  11338-2 0  9998,2 53566  53.2180 324.0672 0000836 162.1502 197.9519 15.08884811 29987,6917.743,95.435,540.187,539.03,0.0
53566.0,STARLINK-4576,PAYLOAD,2023-03-03 23:21:47,15.08878678,7.92e-05,53.2185,319.9049,82.096,278.0122,0.0018817,0.00029818,0.0,0 STARLINK-4576,1 53566U 22101AR  23062.97346474  .00029818  00000-0  18817-2 0  9993,2 53566  53.2185 319.9049 0000792  82.0960 278.0122 15.08878678 30125,6917.762,95.435,540.175,539.079,0.0
53566.0,STARLINK-4576,PAYLOAD,2023-03-04 16:51:02,15.08839973,0.0001043,53.2181,316.6326,80.6216,279.4894,0.0021017,0.00033319,0.0,0 STARLINK-4576,1 53566U 22101AR  23063.70211315  .00033319  00000-0  21017-2 0  9997,2 53566  53.2181 316.6326 0001043  80.6216 279.4894 15.08839973 30239,6917.88,95.438,540.467,539.024,0.0
53566.0,STARLINK-4576,PAYLOAD,2023-03-04 23:12:35,15.08823316,9.8e-05,53.2186,315.4447,31.2687,328.8363,0.0014489,0.00022836,0.0,0 STARLINK-4576,1 53566U 22101AR  23063.96707747  .00022836  00000-0  14489-2 0  9991,2 53566  53.2186 315.4447 0000980  31.2687 328.8363 15.08823316 30962,6917.931,95.439,540.474,539.118,0.0
53566.0,STARLINK-4576,PAYLOAD,2023-03-05 21:27:59,15.08851597,0.0001121,53.2185,311.2812,43.1685,316.9395,0.001092,0.00017139,0.0,0 STARLINK-4576,1 53566U 22101AR  23064.89443987  .00017139  00000-0  10920-2 0  9993,2 53566  53.2185 311.2812 0001121  43.1685 316.9395 15.08851597 30414,6917.845,95.437,540.485,538.934,0.0
53566.0,STARLINK-4576,PAYLOAD,2023-03-06 02:14:08,15.08872978,0.0001141,53.2177,310.3871,46.9771,313.1316,0.0019857,0.00031484,0.0,0 STARLINK-4576,1 53566U 22101AR  23065.09315596  .00031484  00000-0  19857-2 0  9997,2 53566  53.2177 310.3871 0001141  46.9771 313.1316 15.08872978 30440,6917.78,95.435,540.434,538.855,0.0
53566.0,STARLINK-4576,PAYLOAD,2023-03-07 00:29:32,15.08851325,0.0001217,53.2182,306.2259,71.5451,288.5673,0.00060912,9.422e-05,0.0,0 STARLINK-4576,1 53566U 22101AR  23066.02051815  .00009422  00000-0  60912-3 0  9998,2 53566  53.2182 306.2259 0001217  71.5451 288.5673 15.08851325 30582,6917.846,95.437,540.553,538.869,0.0
53566.0,STARLINK-4576,PAYLOAD,2023-03-07 16:23:24,15.08829016,9.58e-05,53.2158,303.2528,99.9294,260.1806,0.00071687,0.00011136,0.0,0 STARLINK-4576,1 53566U 22101AR  23066.68291924  .00011136  00000-0  71687-3 0  9993,2 53566  53.2158 303.2528 0000958  99.9294 260.1806 15.08829016 30688,6917.914,95.438,540.442,539.116,0.0
53566.0,STARLINK-4576,PAYLOAD,2023-03-07 22:44:56,15.08846109,0.0001149,53.2163,302.0622,85.1202,274.9921,0.0015417,0.00024337,0.0,0 STARLINK-4576,1 53566U 22101AR  23066.94788016  .00024337  00000-0  15417-2 0  9990,2 53566  53.2163 302.0622 0001149  85.1202 274.9921 15.08846109 31410,6917.862,95.437,540.522,538.932,0.0
53566.0,STARLINK-4576,PAYLOAD,2023-03-08 00:20:19,15.08847556,0.0001251,53.2164,301.7649,88.1748,271.9388,0.0015816,0.00024978,0.0,0 STARLINK-4576,1 53566U 22101AR  23067.01412016  .00024978  00000-0  15816-2 0  9997,2 53566  53.2164 301.7649 0001251  88.1748 271.9388 15.08847556 30733,6917.857,95.437,540.588,538.857,0.0
53566.0,STARLINK-4576,PAYLOAD,2023-03-09 00:11:07,15.08850902,0.0001805,53.2175,297.3044,88.0866,272.0333,0.00091319,0.0001428,0.0,0 STARLINK-4576,1 53566U 22101AR  23068.00772420  .00014280  00000-0  91319-3 0  9993,2 53566  53.2175 297.3044 0001805  88.0866 272.0333 15.08850902 30886,6917.847,95.437,540.961,538.463,0.0
53566.0,STARLINK-4576,PAYLOAD,2023-03-09 19:15:44,15.08841497,0.0001382,53.2176,293.7356,93.1666,266.9484,0.0003386,5.105e-05,0.0,0 STARLINK-4576,1 53566U 22101AR  23068.80260367  .00005105  00000-0  33860-3 0  9996,2 53566  53.2176 293.7356 0001382  93.1666 266.9484 15.08841497 31001,6917.876,95.437,540.697,538.785,0.0
53566.0,STARLINK-4576,PAYLOAD,2023-03-09 20:51:08,15.08842424,0.0001436,53.2174,293.4385,87.8091,272.3065,0.00031139,4.672e-05,0.0,0 STARLINK-4576,1 53566U 22101AR  23068.86884376  .00004672  00000-0  31139-3 0  9999,2 53566  53.2174 293.4385 0001436  87.8091 272.3065 15.08842424 31704,6917.873,95.437,540.731,538.745,0.0
53566.0,STARLINK-4576,PAYLOAD,2023-03-10 00:01:53,15.08857416,0.0001196,53.2173,292.8442,85.4131,274.6998,0.00059364,9.177e-05,0.0,0 STARLINK-4576,1 53566U 22101AR  23069.00131721  .00009177  00000-0  59364-3 0  9990,2 53566  53.2173 292.8442 0001196  85.4131 274.6998 15.08857416 31035,6917.827,95.436,540.52,538.865,0.0
53566.0,STARLINK-4576,PAYLOAD,2023-03-10 07:58:50,15.08831817,0.0002345,53.2172,291.3569,75.0299,285.0953,1.6369e-05,-2.8e-07,0.0,0 STARLINK-4576,1 53566U 22101AR  23069.33253124 -.00000028  00000-0  16369-4 0  9994,2 53566  53.2172 291.3569 0002345  75.0299 285.0953 15.08831817 31084,6917.905,95.438,541.393,538.148,0.0
53566.0,STARLINK-4576,PAYLOAD,2023-03-10 20:41:55,15.0882655,0.0001361,53.2161,288.9783,63.5542,296.559,-5.1832e-05,-1.112e-05,0.0,0 STARLINK-4576,1 53566U 22101AR  23069.86245362 -.00001112  00000-0 -51832-4 0  9997,2 53566  53.2161 288.9783 0001361  63.5542 296.5590 15.08826550 31859,6917.922,95.438,540.728,538.845,0.0
53566.0,STARLINK-4576,PAYLOAD,2023-03-11 03:03:28,15.08841607,0.0001425,53.2173,287.7861,70.5755,289.5392,0.00031552,4.737e-05,0.0,0 STARLINK-4576,1 53566U 22101AR  23070.12741101  .00004737  00000-0  31552-3 0  9990,2 53566  53.2173 287.7861 0001425  70.5755 289.5392 15.08841607 31202,6917.875,95.437,540.726,538.755,0.0
53566.0,STARLINK-4576,PAYLOAD,2023-03-11 20:32:42,15.08853901,0.0001127,53.2168,284.5173,61.336,298.7745,0.00055278,8.524e-05,0.0,0 STARLINK-4576,1 53566U 22101AR  23070.85604821  .00008524  00000-0  55278-3 0  9996,2 53566  53.2168 284.5173 0001127  61.3360 298.7745 15.08853901 32009,6917.838,95.437,540.483,538.923,0.0
53566.0,STARLINK-4576,PAYLOAD,2023-03-12 14:01:57,15.08846063,0.0001116,53.2172,281.2459,73.7379,286.3736,0.00027855,4.149e-05,0.0,0 STARLINK-4576,1 53566U 22101AR  23071.58468849  .00004149  00000-0  27855-3 0  9994,2 53566  53.2172 281.2459 0001116  73.7379 286.3736 15.08846063 32116,6917.862,95.437,540.499,538.955,0.0
53566.0,STARLINK-4576,PAYLOAD,2023-03-13 13:52:44,15.08837502,0.0001352,53.2176,276.7806,109.0612,251.0526,-6.3457e-05,-1.298e-05,0.0,0 STARLINK-4576,1 53566U 22101AR  23072.57828724 -.00001298  00000-0 -63457-4 0  9999,2 53566  53.2176 276.7806 0001352 109.0612 251.0526 15.08837502 31573,6917.888,95.438,540.688,538.818,0.0
